{
    "links": {
        "self": "http://www.neowsapp.com/rest/v1/neo/54017314?api_key=iIulBulltgU6a56xZRHN4H3l9WmuAYTsLGpBGhQ2"
    },
    "id": "54017314",
    "neo_reference_id": "54017314",
    "name": "(2020 KE7)",
    "designation": "2020 KE7",
    "nasa_jpl_url": "http://ssd.jpl.nasa.gov/sbdb.cgi?sstr=54017314",
    "absolute_magnitude_h": 20.969,
    "estimated_diameter": {
        "kilometers": {
            "estimated_diameter_min": 0.1701198443,
            "estimated_diameter_max": 0.3803995362
        },
        "meters": {
            "estimated_diameter_min": 170.1198443184,
            "estimated_diameter_max": 380.3995362176
        },
        "miles": {
            "estimated_diameter_min": 0.1057075378,
            "estimated_diameter_max": 0.2363692402
        },
        "feet": {
            "estimated_diameter_min": 558.1359900336,
            "estimated_diameter_max": 1248.0300144043
        }
    },
    "is_potentially_hazardous_asteroid": false,
    "close_approach_data": [
        {
            "close_approach_date": "2020-06-17",
            "close_approach_date_full": "2020-Jun-17 01:41",
            "epoch_date_close_approach": 1592358060000,
            "relative_velocity": {
                "kilometers_per_second": "25.5922646178",
                "kilometers_per_hour": "92132.1526241714",
                "miles_per_hour": "57247.3367236136"
            },
            "miss_distance": {
                "astronomical": "0.2329825426",
                "lunar": "90.6302090714",
                "kilometers": "34853692.120144262",
                "miles": "21657080.0313123356"
            },
            "orbiting_body": "Earth"
        },
        {
            "close_approach_date": "2020-07-16",
            "close_approach_date_full": "2020-Jul-16 22:03",
            "epoch_date_close_approach": 1594936980000,
            "relative_velocity": {
                "kilometers_per_second": "14.6115245595",
                "kilometers_per_hour": "52601.488414196",
                "miles_per_hour": "32684.5192871431"
            },
            "miss_distance": {
                "astronomical": "0.0247465625",
                "lunar": "9.6264128125",
                "kilometers": "3702033.039821875",
                "miles": "2300336.662916875"
            },
            "orbiting_body": "Venus"
        }
    ],
    "orbital_data": {
        "orbit_id": "2",
        "orbit_determination_date": "2020-06-16 06:06:27",
        "first_observation_date": "2020-05-28",
        "last_observation_date": "2020-06-14",
        "data_arc_in_days": 17,
        "observations_used": 18,
        "orbit_uncertainty": "9",
        "minimum_orbit_intersection": ".0776871",
        "jupiter_tisserand_invariant": "3.104",
        "epoch_osculation": "2458999.5",
        "eccentricity": ".7131488683396452",
        "semi_major_axis": "2.418336364375241",
        "inclination": "4.970734560185276",
        "ascending_node_longitude": "340.7071016118364",
        "orbital_period": "1373.64176356657",
        "perihelion_distance": ".693702522856426",
        "perihelion_argument": "13.89412724542132",
        "aphelion_distance": "4.142970205894056",
        "perihelion_time": "2459062.617410456741",
        "mean_anomaly": "343.4583743978271",
        "mean_motion": ".2620770637209543",
        "equinox": "J2000",
        "orbit_class": {
            "orbit_class_type": "APO",
            "orbit_class_description": "Near-Earth asteroid orbits which cross the Earth’s orbit similar to that of 1862 Apollo",
            "orbit_class_range": "a (semi-major axis) > 1.0 AU; q (perihelion) < 1.017 AU"
        }
    },
    "is_sentry_object": false
}